{"type": "FeatureCollection", "features": [ {"type": "Feature", "properties": {"norad_id": 41335, "name": "SENTINEL-3A", "group": "resource", "lat": -27.918888627683582, "lon": 56.57151870653382, "alt_km": 808.7435051543825, "timestamp": "2025-12-12T22:42:12.207357+00:00", "meta": {"OBJECT_NAME": "SENTINEL-3A", "OBJECT_ID": "2016-011A", "EPOCH": "2025-12-12T06:00:15.692832", "MEAN_MOTION": 14.26730438, "ECCENTRICITY": 9.538e-05, "INCLINATION": 98.6316, "RA_OF_ASC_NODE": 51.2687, "ARG_OF_PERICENTER": 90.4124, "MEAN_ANOMALY": 269.7166, "EPHEMERIS_TYPE": 0, "CLASSIFICATION_TYPE": "U", "NORAD_CAT_ID": 41335, "ELEMENT_SET_NO": 999, "REV_AT_EPOCH": 51140, "BSTAR": 0.00013537434, "MEAN_MOTION_DOT": 2.84e-06, "MEAN_MOTION_DDOT": 0}, "tle": {"line1": "1 41335U 16011A   25346.25018163  .00000284  00000+0  13537-3 0  9996", "line2": "2 41335  98.6316  51.2687 0000953  90.4124 269.7166 14.26730438511403"}}, "geometry": {"type": "Point", "coordinates": [56.57151870653382, -27.918888627683582]}}, {"type": "Feature", "properties": {"norad_id": 41556, "name": "ZIYUAN 3-2 (ZY 3-2)", "group": "resource", "lat": 26.069848259874618, "lon": -115.24275982384526, "alt_km": 501.1943591775307, "timestamp": "2025-12-12T22:42:12.207367+00:00", "meta": {"OBJECT_NAME": "ZIYUAN 3-2 (ZY 3-2)", "OBJECT_ID": "2016-033A", "EPOCH": "2025-12-12T07:49:25.385664", "MEAN_MOTION": 15.21493791, "ECCENTRICITY": 0.00124416, "INCLINATION": 97.4041, "RA_OF_ASC_NODE": 60.4997, "ARG_OF_PERICENTER": 250.5939, "MEAN_ANOMALY": 109.3953, "EPHEMERIS_TYPE": 0, "CLASSIFICATION_TYPE": "U", "NORAD_CAT_ID": 41556, "ELEMENT_SET_NO": 999, "REV_AT_EPOCH": 52957, "BSTAR": 0.00046229916, "MEAN_MOTION_DOT": 0.00010358, "MEAN_MOTION_DDOT": 0}, "tle": {"line1": "1 41556U 16033A   25346.32598826  .00010358  00000+0  46230-3 0  9991", "line2": "2 41556  97.4041  60.4997 0012441 250.5939 109.3953 15.21493791529578"}}, "geometry": {"type": "Point", "coordinates": [-115.24275982384526, 26.069848259874618]}}, {"type": "Feature", "properties": {"norad_id": 41599, "name": "CARTOSAT-2C", "group": "resource", "lat": 80.35841021810086, "lon": -85.17828988674884, "alt_km": 494.1575579197097, "timestamp": "2025-12-12T22:42:12.207377+00:00", "meta": {"OBJECT_NAME": "CARTOSAT-2C", "OBJECT_ID": "2016-040A", "EPOCH": "2025-12-12T06:28:33.338784", "MEAN_MOTION": 15.19288437, "ECCENTRICITY": 0.00109094, "INCLINATION": 97.4765, "RA_OF_ASC_NODE": 43.525, "ARG_OF_PERICENTER": 67.0016, "MEAN_ANOMALY": 293.2368, "EPHEMERIS_TYPE": 0, "CLASSIFICATION_TYPE": "U", "NORAD_CAT_ID": 41599, "ELEMENT_SET_NO": 999, "REV_AT_EPOCH": 52533, "BSTAR": 0.00032307176, "MEAN_MOTION_DOT": 6.759e-05, "MEAN_MOTION_DDOT": 0}, "tle": {"line1": "1 41599U 16040A   25346.26983031  .00006759  00000+0  32307-3 0  9995", "line2": "2 41599  97.4765  43.5250 0010909  67.0016 293.2368 15.19288437525335"}}, "geometry": {"type": "Point", "coordinates": [-85.17828988674884, 80.35841021810086]}}, {"type": "Feature", "properties": {"norad_id": 41601, "name": "SKYSAT-C1", "group": "resource", "lat": 18.688408863482934, "lon": -153.67591661705015, "alt_km": 469.8823757800719, "timestamp": "2025-12-12T22:42:12.207388+00:00", "meta": {"OBJECT_NAME": "SKYSAT-C1", "OBJECT_ID": "2016-040C", "EPOCH": "2025-12-12T01:37:54.884640", "MEAN_MOTION": 15.32569887, "ECCENTRICITY": 0.0002447, "INCLINATION": 96.983, "RA_OF_ASC_NODE": 23.1193, "ARG_OF_PERICENTER": 16.8765, "MEAN_ANOMALY": 343.2559, "EPHEMERIS_TYPE": 0, "CLASSIFICATION_TYPE": "U", "NORAD_CAT_ID": 41601, "ELEMENT_SET_NO": 999, "REV_AT_EPOCH": 52917, "BSTAR": 0.00044349387, "MEAN_MOTION_DOT": 0.00013887, "MEAN_MOTION_DDOT": 0}, "tle": {"line1": "1 41601U 16040C   25346.06799635  .00013887  00000+0  44349-3 0  9991", "line2": "2 41601  96.9830  23.1193 0002447  16.8765 343.2559 15.32569887529177"}}, "geometry": {"type": "Point", "coordinates": [-153.67591661705015, 18.688408863482934]}}, {"type": "Feature", "properties": {"norad_id": 41603, "name": "LAPAN-A3", "group": "resource", "lat": -55.44834215991555, "lon": -5.011666390245408, "alt_km": 472.48687574212363, "timestamp": "2025-12-12T22:42:12.207399+00:00", "meta": {"OBJECT_NAME": "LAPAN-A3", "OBJECT_ID": "2016-040E", "EPOCH": "2025-12-12T07:16:01.049088", "MEAN_MOTION": 15.31545408, "ECCENTRICITY": 0.00097005, "INCLINATION": 97.1433, "RA_OF_ASC_NODE": 343.8749, "ARG_OF_PERICENTER": 335.7049, "MEAN_ANOMALY": 24.3734, "EPHEMERIS_TYPE": 0, "CLASSIFICATION_TYPE": "U", "NORAD_CAT_ID": 41603, "ELEMENT_SET_NO": 999, "REV_AT_EPOCH": 52619, "BSTAR": 0.00020920896, "MEAN_MOTION_DOT": 6.307e-05, "MEAN_MOTION_DDOT": 0}, "tle": {"line1": "1 41603U 16040E   25346.30278992  .00006307  00000+0  20921-3 0  9997", "line2": "2 41603  97.1433 343.8749 0009700 335.7049  24.3734 15.31545408526190"}}, "geometry": {"type": "Point", "coordinates": [-5.011666390245408, -55.44834215991555]}}, {"type": "Feature", "properties": {"norad_id": 41604, "name": "BIROS", "group": "resource", "lat": 9.634135454334157, "lon": -160.40556550383903, "alt_km": 302.5628885331289, "timestamp": "2025-12-12T22:42:12.207409+00:00", "meta": {"OBJECT_NAME": "BIROS", "OBJECT_ID": "2016-040F", "EPOCH": "2025-12-12T02:20:56.988384", "MEAN_MOTION": 15.89451278, "ECCENTRICITY": 0.00033015, "INCLINATION": 97.07, "RA_OF_ASC_NODE": 17.5048, "ARG_OF_PERICENTER": 153.1943, "MEAN_ANOMALY": 206.9502, "EPHEMERIS_TYPE": 0, "CLASSIFICATION_TYPE": "U", "NORAD_CAT_ID": 41604, "ELEMENT_SET_NO": 999, "REV_AT_EPOCH": 52862, "BSTAR": 0.0006906007, "MEAN_MOTION_DOT": 0.00199195, "MEAN_MOTION_DDOT": 1.6197971e-05}, "tle": {"line1": "1 41604U 16040F   25346.09788181  .00199195  16198-4  69060-3 0  9995", "line2": "2 41604  97.0700  17.5048 0003301 153.1943 206.9502 15.89451278528625"}}, "geometry": {"type": "Point", "coordinates": [-160.40556550383903, 9.634135454334157]}}, {"type": "Feature", "properties": {"norad_id": 41727, "name": "GAOFEN-3", "group": "resource", "lat": 14.809234728360524, "lon": -9.711126154610366, "alt_km": 751.3064716299132, "timestamp": "2025-12-12T22:42:12.207420+00:00", "meta": {"OBJECT_NAME": "GAOFEN-3", "OBJECT_ID": "2016-049A", "EPOCH": "2025-12-12T07:38:54.621600", "MEAN_MOTION": 14.42213478, "ECCENTRICITY": 0.00014455, "INCLINATION": 98.4043, "RA_OF_ASC_NODE": 351.9112, "ARG_OF_PERICENTER": 62.0255, "MEAN_ANOMALY": 298.1081, "EPHEMERIS_TYPE": 0, "CLASSIFICATION_TYPE": "U", "NORAD_CAT_ID": 41727, "ELEMENT_SET_NO": 999, "REV_AT_EPOCH": 49171, "BSTAR": 6.0767365e-05, "MEAN_MOTION_DOT": 1.57e-06, "MEAN_MOTION_DDOT": 0}, "tle": {"line1": "1 41727U 16049A   25346.31868775  .00000157  00000+0  60767-4 0  9998", "line2": "2 41727  98.4043 351.9112 0001445  62.0255 298.1081 14.42213478491714"}}, "geometry": {"type": "Point", "coordinates": [-9.711126154610366, 14.809234728360524]}}, {"type": "Feature", "properties": {"norad_id": 41771, "name": "SKYSAT-C4", "group": "resource", "lat": 74.91634513539415, "lon": -141.01637271835952, "alt_km": 431.47390911113234, "timestamp": "2025-12-12T22:42:12.207430+00:00", "meta": {"OBJECT_NAME": "SKYSAT-C4", "OBJECT_ID": "2016-058B", "EPOCH": "2025-12-12T00:27:20.747232", "MEAN_MOTION": 15.42215688, "ECCENTRICITY": 0.0001466, "INCLINATION": 96.9379, "RA_OF_ASC_NODE": 11.2413, "ARG_OF_PERICENTER": 133.9929, "MEAN_ANOMALY": 226.1441, "EPHEMERIS_TYPE": 0, "CLASSIFICATION_TYPE": "U", "NORAD_CAT_ID": 41771, "ELEMENT_SET_NO": 999, "REV_AT_EPOCH": 51656, "BSTAR": 0.00046677, "MEAN_MOTION_DOT": 0.00019985, "MEAN_MOTION_DDOT": 0}, "tle": {"line1": "1 41771U 16058B   25346.01899013  .00019985  00000+0  46677-3 0  9995", "line2": "2 41771  96.9379  11.2413 0001466 133.9929 226.1441 15.42215688516565"}}, "geometry": {"type": "Point", "coordinates": [-141.01637271835952, 74.91634513539415]}}, {"type": "Feature", "properties": {"norad_id": 41772, "name": "SKYSAT-C5", "group": "resource", "lat": 10.825309877317517, "lon": 29.33060908425067, "alt_km": 462.8296845377945, "timestamp": "2025-12-12T22:42:12.207440+00:00", "meta": {"OBJECT_NAME": "SKYSAT-C5", "OBJECT_ID": "2016-058C", "EPOCH": "2025-12-11T13:47:56.889600", "MEAN_MOTION": 15.34906129, "ECCENTRICITY": 4.67e-05, "INCLINATION": 97.0751, "RA_OF_ASC_NODE": 29.3759, "ARG_OF_PERICENTER": 257.3192, "MEAN_ANOMALY": 102.8, "EPHEMERIS_TYPE": 0, "CLASSIFICATION_TYPE": "U", "NORAD_CAT_ID": 41772, "ELEMENT_SET_NO": 999, "REV_AT_EPOCH": 51498, "BSTAR": 0.00046261, "MEAN_MOTION_DOT": 0.00015598, "MEAN_MOTION_DDOT": 0}, "tle": {"line1": "1 41772U 16058C   25345.57496400  .00015598  00000+0  46261-3 0  9994", "line2": "2 41772  97.0751  29.3759 0000467 257.3192 102.8000 15.34906129514981"}}, "geometry": {"type": "Point", "coordinates": [29.33060908425067, 10.825309877317517]}}, {"type": "Feature", "properties": {"norad_id": 41773, "name": "SKYSAT-C2", "group": "resource", "lat": 24.128569730951696, "lon": 8.292293786968655, "alt_km": 450.77381515330853, "timestamp": "2025-12-12T22:42:12.207450+00:00", "meta": {"OBJECT_NAME": "SKYSAT-C2", "OBJECT_ID": "2016-058D", "EPOCH": "2025-12-12T00:43:35.830848", "MEAN_MOTION": 15.37243964, "ECCENTRICITY": 0.0004321, "INCLINATION": 97.0369, "RA_OF_ASC_NODE": 10.587, "ARG_OF_PERICENTER": 36.2464, "MEAN_ANOMALY": 323.9073, "EPHEMERIS_TYPE": 0, "CLASSIFICATION_TYPE": "U", "NORAD_CAT_ID": 41773, "ELEMENT_SET_NO": 999, "REV_AT_EPOCH": 51625, "BSTAR": 0.00047659, "MEAN_MOTION_DOT": 0.00017332, "MEAN_MOTION_DDOT": 0}, "tle": {"line1": "1 41773U 16058D   25346.03027582  .00017332  00000+0  47659-3 0  9998", "line2": "2 41773  97.0369  10.5870 0004321  36.2464 323.9073 15.37243964516254"}}, "geometry": {"type": "Point", "coordinates": [8.292293786968655, 24.128569730951696]}}]}